[
  {
    "COMMENT": "GENERATED VIA SPACETRACK.ORG API",
    "ORIGINATOR": "18 SPCS",
    "NORAD_CAT_ID": "54754",
    "OBJECT_NAME": "SWOT",
    "OBJECT_TYPE": "PAYLOAD",
    "CLASSIFICATION_TYPE": "U",
    "INTLDES": "22173A",
    "EPOCH": "2023-05-15 11:33:34",
    "EPOCH_MICROSECONDS": "445088",
    "MEAN_MOTION": "14.0985697",
    "ECCENTRICITY": "0.0001101",
    "INCLINATION": "77.6049",
    "RA_OF_ASC_NODE": "120.2153",
    "ARG_OF_PERICENTER": "199.8382",
    "MEAN_ANOMALY": "160.2732",
    "EPHEMERIS_TYPE": "0",
    "ELEMENT_SET_NO": "999",
    "REV_AT_EPOCH": "2113",
    "BSTAR": "0.0001769",
    "MEAN_MOTION_DOT": "0.00000308",
    "MEAN_MOTION_DDOT": "0",
    "FILE": "3908681",
    "TLE_LINE0": "0 SWOT",
    "TLE_LINE1": "1 54754U 22173A   23135.48164867  .00000308  00000-0  17690-3 0  9995",
    "TLE_LINE2": "2 54754  77.6049 120.2153 0001101 199.8382 160.2732 14.09856970 21134",
    "OBJECT_ID": "2022-173A",
    "OBJECT_NUMBER": "54754",
    "SEMIMAJOR_AXIS": "7237.998",
    "PERIOD": "102.138",
    "APOGEE": "860.660",
    "PERIGEE": "859.066",
    "DECAYED": "0"
  },
  {
    "COMMENT": "GENERATED VIA SPACETRACK.ORG API",
    "ORIGINATOR": "18 SPCS",
    "NORAD_CAT_ID": "54754",
    "OBJECT_NAME": "SWOT",
    "OBJECT_TYPE": "PAYLOAD",
    "CLASSIFICATION_TYPE": "U",
    "INTLDES": "22173A",
    "EPOCH": "2023-05-15 13:15:45",
    "EPOCH_MICROSECONDS": "700128",
    "MEAN_MOTION": "14.09857021",
    "ECCENTRICITY": "0.0001099",
    "INCLINATION": "77.6049",
    "RA_OF_ASC_NODE": "120.118",
    "ARG_OF_PERICENTER": "200.0689",
    "MEAN_ANOMALY": "160.0425",
    "EPHEMERIS_TYPE": "0",
    "ELEMENT_SET_NO": "999",
    "REV_AT_EPOCH": "2114",
    "BSTAR": "0.00018151",
    "MEAN_MOTION_DOT": "0.00000316",
    "MEAN_MOTION_DDOT": "0",
    "FILE": "3908606",
    "TLE_LINE0": "0 SWOT",
    "TLE_LINE1": "1 54754U 22173A   23135.55261227  .00000316  00000-0  18151-3 0  9993",
    "TLE_LINE2": "2 54754  77.6049 120.1180 0001099 200.0689 160.0425 14.09857021 21140",
    "OBJECT_ID": "2022-173A",
    "OBJECT_NUMBER": "54754",
    "SEMIMAJOR_AXIS": "7237.998",
    "PERIOD": "102.138",
    "APOGEE": "860.658",
    "PERIGEE": "859.068",
    "DECAYED": "0"
  },
  {
    "COMMENT": "GENERATED VIA SPACETRACK.ORG API",
    "ORIGINATOR": "18 SPCS",
    "NORAD_CAT_ID": "54754",
    "OBJECT_NAME": "SWOT",
    "OBJECT_TYPE": "PAYLOAD",
    "CLASSIFICATION_TYPE": "U",
    "INTLDES": "22173A",
    "EPOCH": "2023-05-15 16:40:08",
    "EPOCH_MICROSECONDS": "215392",
    "MEAN_MOTION": "14.09857093",
    "ECCENTRICITY": "0.0001101",
    "INCLINATION": "77.6049",
    "RA_OF_ASC_NODE": "119.9232",
    "ARG_OF_PERICENTER": "199.5032",
    "MEAN_ANOMALY": "160.6083",
    "EPHEMERIS_TYPE": "0",
    "ELEMENT_SET_NO": "999",
    "REV_AT_EPOCH": "2116",
    "BSTAR": "0.00017458",
    "MEAN_MOTION_DOT": "0.00000304",
    "MEAN_MOTION_DDOT": "0",
    "FILE": "3908892",
    "TLE_LINE0": "0 SWOT",
    "TLE_LINE1": "1 54754U 22173A   23135.69453953  .00000304  00000-0  17458-3 0  9993",
    "TLE_LINE2": "2 54754  77.6049 119.9232 0001101 199.5032 160.6083 14.09857093 21169",
    "OBJECT_ID": "2022-173A",
    "OBJECT_NUMBER": "54754",
    "SEMIMAJOR_AXIS": "7237.998",
    "PERIOD": "102.138",
    "APOGEE": "860.660",
    "PERIGEE": "859.066",
    "DECAYED": "0"
  },
  {
    "COMMENT": "GENERATED VIA SPACETRACK.ORG API",
    "ORIGINATOR": "18 SPCS",
    "NORAD_CAT_ID": "54754",
    "OBJECT_NAME": "SWOT",
    "OBJECT_TYPE": "PAYLOAD",
    "CLASSIFICATION_TYPE": "U",
    "INTLDES": "22173A",
    "EPOCH": "2023-05-16 13:06:23",
    "EPOCH_MICROSECONDS": "291424",
    "MEAN_MOTION": "14.09857374",
    "ECCENTRICITY": "0.0001095",
    "INCLINATION": "77.6051",
    "RA_OF_ASC_NODE": "118.7547",
    "ARG_OF_PERICENTER": "198.4324",
    "MEAN_ANOMALY": "161.6794",
    "EPHEMERIS_TYPE": "0",
    "ELEMENT_SET_NO": "999",
    "REV_AT_EPOCH": "2128",
    "BSTAR": "0.00012448",
    "MEAN_MOTION_DOT": "0.00000216",
    "MEAN_MOTION_DDOT": "0",
    "FILE": "3909472",
    "TLE_LINE0": "0 SWOT",
    "TLE_LINE1": "1 54754U 22173A   23136.54610291  .00000216  00000-0  12448-3 0  9994",
    "TLE_LINE2": "2 54754  77.6051 118.7547 0001095 198.4324 161.6794 14.09857374 21287",
    "OBJECT_ID": "2022-173A",
    "OBJECT_NUMBER": "54754",
    "SEMIMAJOR_AXIS": "7237.997",
    "PERIOD": "102.138",
    "APOGEE": "860.654",
    "PERIGEE": "859.069",
    "DECAYED": "0"
  },
  {
    "COMMENT": "GENERATED VIA SPACETRACK.ORG API",
    "ORIGINATOR": "18 SPCS",
    "NORAD_CAT_ID": "54754",
    "OBJECT_NAME": "SWOT",
    "OBJECT_TYPE": "PAYLOAD",
    "CLASSIFICATION_TYPE": "U",
    "INTLDES": "22173A",
    "EPOCH": "2023-05-16 21:37:19",
    "EPOCH_MICROSECONDS": "561440",
    "MEAN_MOTION": "14.09857573",
    "ECCENTRICITY": "0.0001094",
    "INCLINATION": "77.6051",
    "RA_OF_ASC_NODE": "118.2679",
    "ARG_OF_PERICENTER": "198.968",
    "MEAN_ANOMALY": "161.1436",
    "EPHEMERIS_TYPE": "0",
    "ELEMENT_SET_NO": "999",
    "REV_AT_EPOCH": "2133",
    "BSTAR": "0.00013205",
    "MEAN_MOTION_DOT": "0.0000023",
    "MEAN_MOTION_DDOT": "0",
    "FILE": "3909696",
    "TLE_LINE0": "0 SWOT",
    "TLE_LINE1": "1 54754U 22173A   23136.90092085  .00000230  00000-0  13205-3 0  9997",
    "TLE_LINE2": "2 54754  77.6051 118.2679 0001094 198.9680 161.1436 14.09857573 21332",
    "OBJECT_ID": "2022-173A",
    "OBJECT_NUMBER": "54754",
    "SEMIMAJOR_AXIS": "7237.996",
    "PERIOD": "102.138",
    "APOGEE": "860.653",
    "PERIGEE": "859.069",
    "DECAYED": "0"
  },
  {
    "COMMENT": "GENERATED VIA SPACETRACK.ORG API",
    "ORIGINATOR": "18 SPCS",
    "NORAD_CAT_ID": "54754",
    "OBJECT_NAME": "SWOT",
    "OBJECT_TYPE": "PAYLOAD",
    "CLASSIFICATION_TYPE": "U",
    "INTLDES": "22173A",
    "EPOCH": "2023-05-16 21:37:19",
    "EPOCH_MICROSECONDS": "561440",
    "MEAN_MOTION": "14.09857573",
    "ECCENTRICITY": "0.0001094",
    "INCLINATION": "77.6051",
    "RA_OF_ASC_NODE": "118.2679",
    "ARG_OF_PERICENTER": "198.968",
    "MEAN_ANOMALY": "161.1436",
    "EPHEMERIS_TYPE": "0",
    "ELEMENT_SET_NO": "999",
    "REV_AT_EPOCH": "2133",
    "BSTAR": "0.00013205",
    "MEAN_MOTION_DOT": "0.0000023",
    "MEAN_MOTION_DDOT": "0",
    "FILE": "3909742",
    "TLE_LINE0": "0 SWOT",
    "TLE_LINE1": "1 54754U 22173A   23136.90092085  .00000230  00000-0  13205-3 0  9997",
    "TLE_LINE2": "2 54754  77.6051 118.2679 0001094 198.9680 161.1436 14.09857573 21332",
    "OBJECT_ID": "2022-173A",
    "OBJECT_NUMBER": "54754",
    "SEMIMAJOR_AXIS": "7237.996",
    "PERIOD": "102.138",
    "APOGEE": "860.653",
    "PERIGEE": "859.069",
    "DECAYED": "0"
  },
  {
    "COMMENT": "GENERATED VIA SPACETRACK.ORG API",
    "ORIGINATOR": "18 SPCS",
    "NORAD_CAT_ID": "54754",
    "OBJECT_NAME": "SWOT",
    "OBJECT_TYPE": "PAYLOAD",
    "CLASSIFICATION_TYPE": "U",
    "INTLDES": "22173A",
    "EPOCH": "2023-05-17 21:27:57",
    "EPOCH_MICROSECONDS": "110400",
    "MEAN_MOTION": "14.09857973",
    "ECCENTRICITY": "0.0001084",
    "INCLINATION": "77.6053",
    "RA_OF_ASC_NODE": "116.9047",
    "ARG_OF_PERICENTER": "198.1795",
    "MEAN_ANOMALY": "161.9323",
    "EPHEMERIS_TYPE": "0",
    "ELEMENT_SET_NO": "999",
    "REV_AT_EPOCH": "2147",
    "BSTAR": "0.00011697",
    "MEAN_MOTION_DOT": "0.00000203",
    "MEAN_MOTION_DDOT": "0",
    "FILE": "3910633",
    "TLE_LINE0": "0 SWOT",
    "TLE_LINE1": "1 54754U 22173A   23137.89441100  .00000203  00000-0  11697-3 0  9995",
    "TLE_LINE2": "2 54754  77.6053 116.9047 0001084 198.1795 161.9323 14.09857973 21478",
    "OBJECT_ID": "2022-173A",
    "OBJECT_NUMBER": "54754",
    "SEMIMAJOR_AXIS": "7237.995",
    "PERIOD": "102.138",
    "APOGEE": "860.644",
    "PERIGEE": "859.075",
    "DECAYED": "0"
  },
  {
    "COMMENT": "GENERATED VIA SPACETRACK.ORG API",
    "ORIGINATOR": "18 SPCS",
    "NORAD_CAT_ID": "54754",
    "OBJECT_NAME": "SWOT",
    "OBJECT_TYPE": "PAYLOAD",
    "CLASSIFICATION_TYPE": "U",
    "INTLDES": "22173A",
    "EPOCH": "2023-05-18 04:16:42",
    "EPOCH_MICROSECONDS": "284352",
    "MEAN_MOTION": "14.09849028",
    "ECCENTRICITY": "0.0001041",
    "INCLINATION": "77.6055",
    "RA_OF_ASC_NODE": "116.5152",
    "ARG_OF_PERICENTER": "199.7113",
    "MEAN_ANOMALY": "160.4004",
    "EPHEMERIS_TYPE": "0",
    "ELEMENT_SET_NO": "999",
    "REV_AT_EPOCH": "2151",
    "BSTAR": "0.00011072",
    "MEAN_MOTION_DOT": "0.00000192",
    "MEAN_MOTION_DDOT": "0",
    "FILE": "3910884",
    "TLE_LINE0": "0 SWOT",
    "TLE_LINE1": "1 54754U 22173A   23138.17826718  .00000192  00000-0  11072-3 0  9993",
    "TLE_LINE2": "2 54754  77.6055 116.5152 0001041 199.7113 160.4004 14.09849028 21514",
    "OBJECT_ID": "2022-173A",
    "OBJECT_NUMBER": "54754",
    "SEMIMAJOR_AXIS": "7238.025",
    "PERIOD": "102.139",
    "APOGEE": "860.644",
    "PERIGEE": "859.137",
    "DECAYED": "0"
  },
  {
    "COMMENT": "GENERATED VIA SPACETRACK.ORG API",
    "ORIGINATOR": "18 SPCS",
    "NORAD_CAT_ID": "54754",
    "OBJECT_NAME": "SWOT",
    "OBJECT_TYPE": "PAYLOAD",
    "CLASSIFICATION_TYPE": "U",
    "INTLDES": "22173A",
    "EPOCH": "2023-05-18 12:47:38",
    "EPOCH_MICROSECONDS": "743584",
    "MEAN_MOTION": "14.0984892",
    "ECCENTRICITY": "0.000105",
    "INCLINATION": "77.6055",
    "RA_OF_ASC_NODE": "116.0282",
    "ARG_OF_PERICENTER": "199.501",
    "MEAN_ANOMALY": "160.6106",
    "EPHEMERIS_TYPE": "0",
    "ELEMENT_SET_NO": "999",
    "REV_AT_EPOCH": "2156",
    "BSTAR": "0.00010726",
    "MEAN_MOTION_DOT": "0.00000186",
    "MEAN_MOTION_DDOT": "0",
    "FILE": "3911221",
    "TLE_LINE0": "0 SWOT",
    "TLE_LINE1": "1 54754U 22173A   23138.53308731  .00000186  00000-0  10726-3 0  9991",
    "TLE_LINE2": "2 54754  77.6055 116.0282 0001050 199.5010 160.6106 14.09848920 21567",
    "OBJECT_ID": "2022-173A",
    "OBJECT_NUMBER": "54754",
    "SEMIMAJOR_AXIS": "7238.026",
    "PERIOD": "102.139",
    "APOGEE": "860.651",
    "PERIGEE": "859.131",
    "DECAYED": "0"
  }
]